INMARSAT 4-F2           
1 28899U 05044A   26064.24905831 -.00000267  00000+0  00000+0 0  9993
2 28899   4.9592  43.8067 0002669 320.8530  31.4801  1.00271265 74472
GSAT-8                  
1 37605U 11022A   26064.20669693  .00000077  00000+0  00000+0 0  9998
2 37605   1.8623  83.1475 0007284 215.5493 353.7044  1.00272663 52179
LUCH-5A                 
1 37951U 11074B   26064.33107759 -.00000052  00000+0  00000+0 0  9997
2 37951   8.4896  75.3323 0003940 246.4395 127.5868  1.00275710 52012
SES-5                   
1 38652U 12036A   26064.22759712  .00000025  00000+0  00000+0 0  9994
2 38652   0.0582 313.3955 0002004  26.9786 269.4942  1.00272323 43412
GSAT-10                 
1 38779U 12051B   26064.17614138 -.00000174  00000+0  00000+0 0  9993
2 38779   0.0717 263.0180 0004340 176.4786 229.7946  1.00273420 49057
LUCH-5B                 
1 38977U 12061A   26064.22343709 -.00000142  00000+0  00000+0 0  9998
2 38977  10.2605  50.8976 0004219 224.0115 312.1779  1.00271858 48561
ASTRA 5B                
1 39617U 14011B   26064.23132381  .00000128  00000+0  00000+0 0  9993
2 39617   0.0892 299.5362 0004096  27.4419 302.7363  1.00271429 43624
LUCH-5V                 
1 39727U 14023A   26064.03146958 -.00000276  00000+0  00000+0 0  9996
2 39727   4.8765  70.7693 0003024 280.3184 277.7436  1.00271609 43310
GSAT-15                 
1 41028U 15065A   26064.00277581 -.00000267  00000+0  00000+0 0  9994
2 41028   0.0882 269.9406 0000952  97.2861 249.9859  1.00270828 37756
EUTELSAT 117 WEST B     
1 41589U 16038B   26063.36225455 -.00000023  00000+0  00000+0 0  9998
2 41589   0.0384 342.0206 0000210 243.2130 310.2920  1.00271881 35619
SES-15                  
1 42709U 17026A   26064.01780892  .00000050  00000+0  00000+0 0  9994
2 42709   0.0426 307.9199 0000713  39.5952  52.4724  1.00271060  6386
QZS-2 (MICHIBIKI-2)     
1 42738U 17028A   26063.52022194 -.00000176  00000+0  00000+0 0  9997
2 42738  39.5902 244.6778 0745655 270.3311 336.1474  1.00261975  6578
QZS-3 (MICHIBIKI-3)     
1 42917U 17048A   26064.26016903 -.00000356  00000+0  00000+0 0  9991
2 42917   0.0706 215.3380 0002278 141.4927  26.8119  1.00275882 31214
QZS-4 (MICHIBIKI-4)     
1 42965U 17062A   26063.49969188 -.00000343  00000+0  00000+0 0  9992
2 42965  40.1729 344.8221 0748648 269.8938 227.8704  1.00280862 30759
BEIDOU-3 G1             
1 43683U 18085A   26064.25437725 -.00000286  00000+0  00000+0 0  9994
2 43683   2.8129 100.3639 0001393  21.2833 272.9442  1.00268333 27011
EUTELSAT 5 WEST B       
1 44624U 19067A   26064.22569044 -.00000051  00000+0  00000+0 0  9998
2 44624   0.0933 311.2659 0003206  42.6829 245.2296  1.00272817 23391
BEIDOU-3 G2             
1 45344U 20017A   26064.17117687 -.00000147  00000+0  00000+0 0  9997
2 45344   2.6560  45.5996 0002768 306.1729 312.7844  1.00271212 22212
